*******************************************************************************
Ephemeris / WWW_USER Mon Mar 24 08:26:29 2025 Pasadena, USA      / Horizons    
*******************************************************************************
Target body name: (2018 VS8)                      {source: JPL#8}
Center body name: Earth (399)                     {source: DE441}
Center-site name: Mauna Kea
*******************************************************************************
Start time      : A.D. 2019-Jan-16 04:13:00.0000 UT      
Stop  time      : A.D. 2019-Jan-16 16:49:00.0000 UT      
Step-size       : 1 minutes
*******************************************************************************
Target pole/equ : undefined
Target radii    : undefined                                                    
Center geodetic : 204.5278, 19.8260847, 4.21024   {E-lon(deg),Lat(deg),Alt(km)}
Center cylindric: 204.5278, 6006.35451, 2151.0229 {E-lon(deg),Dxy(km),Dz(km)}
Center pole/equ : ITRF93                          {East-longitude positive}
Center radii    : 6378.137, 6378.137, 6356.752 km {Equator_a, b, pole_c}       
Target primary  : Sun
Vis. interferer : MOON (R_eq= 1737.400) km        {source: DE441}
Rel. light bend : Sun                             {source: DE441}
Rel. lght bnd GM: 1.3271E+11 km^3/s^2                                          
Small-body perts: Yes                             {source: SB441-N16}
Atmos refraction: NO (AIRLESS)
RA format       : HMS
Time format     : CAL 
Calendar mode   : Mixed Julian/Gregorian
RTS-only print  : NO       
EOP file        : eop.250321.p250617                                           
EOP coverage    : DATA-BASED 1962-JAN-20 TO 2025-MAR-21. PREDICTS-> 2025-JUN-16
Units conversion: 1 au= 149597870.700 km, c= 299792.458 km/s, 1 day= 86400.0 s 
Table cut-offs 1: Elevation (-90.0deg=NO ),Airmass (>38.000=NO), Daylight (YES)
Table cut-offs 2: Solar elongation (  0.0,180.0=NO ),Local Hour Angle( 0.0=NO )
Table cut-offs 3: RA/DEC angular rate (     0.0=NO )                           
*******************************************************************************
Initial IAU76/J2000 heliocentric ecliptic osculating elements (au, days, deg.):
  EPOCH=  2458433.5 ! 2018-Nov-11.00 (TDB)         Residual RMS= .33953        
   EC= .5263784885368822   QR= .9373233613851428   TP= 2458465.1575556668      
   OM= 53.89076972236643   W=  33.71683445616237   IN= 3.430463171034721       
  Equivalent ICRF heliocentric cartesian coordinates (au, au/d):
   X= 6.888560011548344E-01  Y= 6.928655939663307E-01  Z= 2.929974091538562E-01
  VX=-1.813811938800288E-02 VY= 8.693003909227039E-03 VZ= 5.111678677431928E-03
Asteroid physical parameters (km, seconds, rotational period in hours):        
   GM= n.a.                RAD= n.a.               ROTPER= n.a.                
   H= 27.2                 G= .150                 B-V= n.a.                   
                           ALBEDO= n.a.            STYP= n.a.                  
*******************************************************************************
 Date__(UT)__HR:MN     R.A._________(ICRF)_________DEC
******************************************************
$$SOE
 2019-Jan-16 04:13 Cm  13 47 07.894576 +02 00 09.13285
 2019-Jan-16 04:14 Cm  13 47 07.920079 +02 00 08.97727
 2019-Jan-16 04:15 Cm  13 47 07.945583 +02 00 08.82171
 2019-Jan-16 04:16 Cm  13 47 07.971089 +02 00 08.66617
 2019-Jan-16 04:17 Cm  13 47 07.996595 +02 00 08.51066
 2019-Jan-16 04:18 Cm  13 47 08.022102 +02 00 08.35518
 2019-Jan-16 04:19 Cm  13 47 08.047609 +02 00 08.19973
 2019-Jan-16 04:20 Cm  13 47 08.073117 +02 00 08.04430
 2019-Jan-16 04:21 Cm  13 47 08.098625 +02 00 07.88889
 2019-Jan-16 04:22 Cm  13 47 08.124133 +02 00 07.73351
 2019-Jan-16 04:23 Cm  13 47 08.149640 +02 00 07.57816
 2019-Jan-16 04:24 Cm  13 47 08.175148 +02 00 07.42283
 2019-Jan-16 04:25 Cm  13 47 08.200655 +02 00 07.26753
 2019-Jan-16 04:26 Cm  13 47 08.226161 +02 00 07.11226
 2019-Jan-16 04:27 Cm  13 47 08.251667 +02 00 06.95701
 2019-Jan-16 04:28 Nm  13 47 08.277171 +02 00 06.80178
 2019-Jan-16 04:29 Nm  13 47 08.302675 +02 00 06.64658
 2019-Jan-16 04:30 Nm  13 47 08.328177 +02 00 06.49141
 2019-Jan-16 04:31 Nm  13 47 08.353678 +02 00 06.33627
 2019-Jan-16 04:32 Nm  13 47 08.379177 +02 00 06.18115
 2019-Jan-16 04:33 Nm  13 47 08.404674 +02 00 06.02605
 2019-Jan-16 04:34 Nm  13 47 08.430170 +02 00 05.87098
 2019-Jan-16 04:35 Nm  13 47 08.455663 +02 00 05.71594
 2019-Jan-16 04:36 Nm  13 47 08.481154 +02 00 05.56092
 2019-Jan-16 04:37 Nm  13 47 08.506642 +02 00 05.40593
 2019-Jan-16 04:38 Nm  13 47 08.532128 +02 00 05.25097
 2019-Jan-16 04:39 Nm  13 47 08.557611 +02 00 05.09603
 2019-Jan-16 04:40 Nm  13 47 08.583092 +02 00 04.94111
 2019-Jan-16 04:41 Nm  13 47 08.608569 +02 00 04.78623
 2019-Jan-16 04:42 Nm  13 47 08.634043 +02 00 04.63137
 2019-Jan-16 04:43 Nm  13 47 08.659513 +02 00 04.47653
 2019-Jan-16 04:44 Nm  13 47 08.684980 +02 00 04.32172
 2019-Jan-16 04:45 Nm  13 47 08.710443 +02 00 04.16693
 2019-Jan-16 04:46 Nm  13 47 08.735903 +02 00 04.01218
 2019-Jan-16 04:47 Nm  13 47 08.761358 +02 00 03.85744
 2019-Jan-16 04:48 Nm  13 47 08.786809 +02 00 03.70274
 2019-Jan-16 04:49 Nm  13 47 08.812256 +02 00 03.54806
 2019-Jan-16 04:50 Nm  13 47 08.837698 +02 00 03.39340
 2019-Jan-16 04:51 Nm  13 47 08.863135 +02 00 03.23877
 2019-Jan-16 04:52 Nm  13 47 08.888567 +02 00 03.08417
 2019-Jan-16 04:53 Nm  13 47 08.913995 +02 00 02.92959
 2019-Jan-16 04:54 Nm  13 47 08.939417 +02 00 02.77504
 2019-Jan-16 04:55 Am  13 47 08.964834 +02 00 02.62051
 2019-Jan-16 04:56 Am  13 47 08.990245 +02 00 02.46601
 2019-Jan-16 04:57 Am  13 47 09.015650 +02 00 02.31153
 2019-Jan-16 04:58 Am  13 47 09.041050 +02 00 02.15708
 2019-Jan-16 04:59 Am  13 47 09.066444 +02 00 02.00266
 2019-Jan-16 05:00 Am  13 47 09.091831 +02 00 01.84826
 2019-Jan-16 05:01 Am  13 47 09.117212 +02 00 01.69389
 2019-Jan-16 05:02 Am  13 47 09.142587 +02 00 01.53954
 2019-Jan-16 05:03 Am  13 47 09.167955 +02 00 01.38522
 2019-Jan-16 05:04 Am  13 47 09.193316 +02 00 01.23093
 2019-Jan-16 05:05 Am  13 47 09.218670 +02 00 01.07666
 2019-Jan-16 05:06 Am  13 47 09.244017 +02 00 00.92241
 2019-Jan-16 05:07 Am  13 47 09.269357 +02 00 00.76820
 2019-Jan-16 05:08 Am  13 47 09.294689 +02 00 00.61400
 2019-Jan-16 05:09 Am  13 47 09.320014 +02 00 00.45984
 2019-Jan-16 05:10 Am  13 47 09.345330 +02 00 00.30569
 2019-Jan-16 05:11 Am  13 47 09.370639 +02 00 00.15158
 2019-Jan-16 05:12 Am  13 47 09.395940 +01 59 59.99749
 2019-Jan-16 05:13 Am  13 47 09.421232 +01 59 59.84342
 2019-Jan-16 05:14 Am  13 47 09.446516 +01 59 59.68938
 2019-Jan-16 05:15 Am  13 47 09.471792 +01 59 59.53537
 2019-Jan-16 05:16 Am  13 47 09.497058 +01 59 59.38138
 2019-Jan-16 05:17 Am  13 47 09.522316 +01 59 59.22742
 2019-Jan-16 05:18 Am  13 47 09.547564 +01 59 59.07348
 2019-Jan-16 05:19 Am  13 47 09.572804 +01 59 58.91957
 2019-Jan-16 05:20 Am  13 47 09.598034 +01 59 58.76568
 2019-Jan-16 05:21  m  13 47 09.623254 +01 59 58.61182
 2019-Jan-16 05:22  m  13 47 09.648465 +01 59 58.45799
 2019-Jan-16 05:23  m  13 47 09.673666 +01 59 58.30417
 2019-Jan-16 05:24  m  13 47 09.698856 +01 59 58.15039
 2019-Jan-16 05:25  m  13 47 09.724037 +01 59 57.99663
 2019-Jan-16 05:26  m  13 47 09.749207 +01 59 57.84290
 2019-Jan-16 05:27  m  13 47 09.774367 +01 59 57.68919
 2019-Jan-16 05:28  m  13 47 09.799516 +01 59 57.53550
 2019-Jan-16 05:29  m  13 47 09.824654 +01 59 57.38184
 2019-Jan-16 05:30  m  13 47 09.849781 +01 59 57.22821
 2019-Jan-16 05:31  m  13 47 09.874897 +01 59 57.07460
 2019-Jan-16 05:32  m  13 47 09.900002 +01 59 56.92102
 2019-Jan-16 05:33  m  13 47 09.925095 +01 59 56.76746
 2019-Jan-16 05:34  m  13 47 09.950177 +01 59 56.61393
 2019-Jan-16 05:35  m  13 47 09.975247 +01 59 56.46042
 2019-Jan-16 05:36  m  13 47 10.000305 +01 59 56.30694
 2019-Jan-16 05:37  m  13 47 10.025350 +01 59 56.15348
 2019-Jan-16 05:38  m  13 47 10.050384 +01 59 56.00005
 2019-Jan-16 05:39  m  13 47 10.075405 +01 59 55.84664
 2019-Jan-16 05:40  m  13 47 10.100414 +01 59 55.69326
 2019-Jan-16 05:41  m  13 47 10.125410 +01 59 55.53990
 2019-Jan-16 05:42  m  13 47 10.150393 +01 59 55.38657
 2019-Jan-16 05:43  m  13 47 10.175363 +01 59 55.23326
 2019-Jan-16 05:44  m  13 47 10.200320 +01 59 55.07998
 2019-Jan-16 05:45  m  13 47 10.225264 +01 59 54.92672
 2019-Jan-16 05:46  m  13 47 10.250194 +01 59 54.77349
 2019-Jan-16 05:47  m  13 47 10.275110 +01 59 54.62028
 2019-Jan-16 05:48  m  13 47 10.300013 +01 59 54.46710
 2019-Jan-16 05:49  m  13 47 10.324901 +01 59 54.31394
 2019-Jan-16 05:50  m  13 47 10.349776 +01 59 54.16081
 2019-Jan-16 05:51  m  13 47 10.374636 +01 59 54.00770
 2019-Jan-16 05:52  m  13 47 10.399482 +01 59 53.85462
 2019-Jan-16 05:53  m  13 47 10.424314 +01 59 53.70156
 2019-Jan-16 05:54  m  13 47 10.449130 +01 59 53.54852
 2019-Jan-16 05:55  m  13 47 10.473932 +01 59 53.39551
 2019-Jan-16 05:56  m  13 47 10.498719 +01 59 53.24253
 2019-Jan-16 05:57  m  13 47 10.523491 +01 59 53.08956
 2019-Jan-16 05:58  m  13 47 10.548247 +01 59 52.93663
 2019-Jan-16 05:59  m  13 47 10.572988 +01 59 52.78372
 2019-Jan-16 06:00  m  13 47 10.597713 +01 59 52.63083
 2019-Jan-16 06:01  m  13 47 10.622422 +01 59 52.47796
 2019-Jan-16 06:02  m  13 47 10.647116 +01 59 52.32513
 2019-Jan-16 06:03  m  13 47 10.671793 +01 59 52.17231
 2019-Jan-16 06:04  m  13 47 10.696454 +01 59 52.01952
 2019-Jan-16 06:05  m  13 47 10.721099 +01 59 51.86676
 2019-Jan-16 06:06  m  13 47 10.745728 +01 59 51.71401
 2019-Jan-16 06:07  m  13 47 10.770339 +01 59 51.56130
 2019-Jan-16 06:08  m  13 47 10.794934 +01 59 51.40860
 2019-Jan-16 06:09  m  13 47 10.819512 +01 59 51.25593
 2019-Jan-16 06:10  m  13 47 10.844073 +01 59 51.10329
 2019-Jan-16 06:11  m  13 47 10.868616 +01 59 50.95067
 2019-Jan-16 06:12  m  13 47 10.893142 +01 59 50.79807
 2019-Jan-16 06:13  m  13 47 10.917651 +01 59 50.64550
 2019-Jan-16 06:14  m  13 47 10.942142 +01 59 50.49295
 2019-Jan-16 06:15  m  13 47 10.966615 +01 59 50.34043
